NORAD_CAT_ID,OBJECT_NAME,OBJECT_TYPE,EPOCH,MEAN_MOTION,ECCENTRICITY,INCLINATION,RA_OF_ASC_NODE,ARG_OF_PERICENTER,MEAN_ANOMALY,BSTAR,MEAN_MOTION_DOT,MEAN_MOTION_DDOT,TLE_LINE0,TLE_LINE1,TLE_LINE2,SEMIMAJOR_AXIS,PERIOD,APOGEE,PERIGEE,DECAYED
51786.0,STARLINK-3638,PAYLOAD,2023-11-05 11:56:15,15.08859525,0.0001656,53.216,228.2284,82.4522,277.6658,0.00067591,0.00010491,0.0,0 STARLINK-3638,1 51786U 22017U   23309.49740137  .00010491  00000-0  67591-3 0  9997,2 51786  53.2160 228.2284 0001656  82.4522 277.6658 15.08859525 94861,6917.821,95.436,540.831,538.54,0.0
51786.0,STARLINK-3638,PAYLOAD,2023-11-06 03:50:04,15.0891341,0.0001472,53.2158,225.2552,99.481,260.6349,0.0024156,0.00038444,0.0,0 STARLINK-3638,1 51786U 22017U   23310.15977715  .00038444  00000-0  24156-2 0  9993,2 51786  53.2158 225.2552 0001472  99.4810 260.6349 15.08913410 94961,6917.656,95.433,540.539,538.503,0.0
51786.0,STARLINK-3638,PAYLOAD,2023-11-06 11:47:00,15.08859131,0.0002228,53.2165,223.7683,84.194,275.9306,-0.00023717,-4.063e-05,0.0,0 STARLINK-3638,1 51786U 22017U   23310.49098286 -.00004063  00000-0 -23717-3 0  9992,2 51786  53.2165 223.7683 0002228  84.1940 275.9306 15.08859131 95010,6917.822,95.436,541.228,538.146,0.0
51786.0,STARLINK-3638,PAYLOAD,2023-11-07 00:30:08,15.08774331,0.000119,53.2172,221.3858,103.1173,256.9952,-0.0017979,-0.00028736,0.0,0 STARLINK-3638,1 51786U 22017U   23311.02093111 -.00028736  00000-0 -17979-2 0  9999,2 51786  53.2172 221.3858 0001190 103.1173 256.9952 15.08774331 95095,6918.081,95.442,540.769,539.123,0.0
51786.0,STARLINK-3638,PAYLOAD,2023-11-07 11:37:51,15.0880448,0.0001568,53.2173,219.306,108.1915,251.9248,-4.879e-05,-1.064e-05,0.0,0 STARLINK-3638,1 51786U 22017U   23311.48461998 -.00001064  00000-0 -48790-4 0  9993,2 51786  53.2173 219.3060 0001568 108.1915 251.9248 15.08804480 95166,6917.989,95.44,540.939,538.769,0.0
51786.0,STARLINK-3638,PAYLOAD,2023-11-08 00:20:56,15.08844499,0.0001543,53.2174,216.928,104.9556,255.1607,0.0014948,0.00023585,0.0,0 STARLINK-3638,1 51786U 22017U   23312.01453942  .00023585  00000-0  14948-2 0  9999,2 51786  53.2174 216.9280 0001543 104.9556 255.1607 15.08844499 95240,6917.867,95.437,540.799,538.664,0.0
51786.0,STARLINK-3638,PAYLOAD,2023-11-08 22:36:19,15.08855569,0.0001437,53.2167,212.7637,107.1739,252.9411,0.00073805,0.00011483,0.0,0 STARLINK-3638,1 51786U 22017U   23312.94189445  .00011483  00000-0  73805-3 0  9997,2 51786  53.2167 212.7637 0001437 107.1739 252.9411 15.08855569 93697,6917.833,95.437,540.692,538.704,0.0
51786.0,STARLINK-3638,PAYLOAD,2023-11-09 00:11:42,15.08857316,0.0001584,53.2166,212.4653,115.3588,244.7568,0.000653,0.00010125,0.0,0 STARLINK-3638,1 51786U 22017U   23313.00813387  .00010125  00000-0  65300-3 0  9997,2 51786  53.2166 212.4653 0001584 115.3588 244.7568 15.08857316 95390,6917.827,95.436,540.788,538.597,0.0
51786.0,STARLINK-3638,PAYLOAD,2023-11-09 22:27:06,15.08848566,0.0001462,53.2165,208.3047,100.7166,259.399,5.4238e-05,5.76e-06,0.0,0 STARLINK-3638,1 51786U 22017U   23313.93548919  .00000576  00000-0  54238-4 0  9993,2 51786  53.2165 208.3047 0001462 100.7166 259.3990 15.08848566 93841,6917.854,95.437,540.731,538.708,0.0
51786.0,STARLINK-3638,PAYLOAD,2023-11-10 00:02:29,15.08847814,0.0001412,53.2158,208.0087,92.0423,268.0731,5.328e-05,5.6e-06,0.0,0 STARLINK-3638,1 51786U 22017U   23314.00172833  .00000560  00000-0  53280-4 0  9999,2 51786  53.2158 208.0087 0001412  92.0423 268.0731 15.08847814 95542,6917.857,95.437,540.698,538.745,0.0
51786.0,STARLINK-3638,PAYLOAD,2023-11-10 09:34:48,15.08841389,0.000144,53.2166,206.2226,92.0097,268.106,7.7098e-05,9.39e-06,0.0,0 STARLINK-3638,1 51786U 22017U   23314.39917019  .00000939  00000-0  77098-4 0  9997,2 51786  53.2166 206.2226 0001440  92.0097 268.1060 15.08841389 93910,6917.876,95.437,540.737,538.745,0.0
51786.0,STARLINK-3638,PAYLOAD,2023-11-10 22:17:53,15.08840145,0.0001408,53.2157,203.8452,86.4031,273.7122,3.8636e-05,3.27e-06,0.0,0 STARLINK-3638,1 51786U 22017U   23314.92909208  .00000327  00000-0  38636-4 0  9993,2 51786  53.2157 203.8452 0001408  86.4031 273.7122 15.08840145 93991,6917.88,95.438,540.719,538.771,0.0
51786.0,STARLINK-3638,PAYLOAD,2023-11-11 09:25:35,15.08843061,0.0001438,53.2166,201.7647,104.1102,256.005,0.00015703,2.212e-05,0.0,0 STARLINK-3638,1 51786U 22017U   23315.39276991  .00002212  00000-0  15703-3 0  9995,2 51786  53.2166 201.7647 0001438 104.1102 256.0050 15.08843061 94067,6917.871,95.437,540.731,538.741,0.0
51786.0,STARLINK-3638,PAYLOAD,2023-11-11 17:22:31,15.0883331,0.0001324,53.2154,200.2762,81.3822,278.732,-5.0461e-05,-1.091e-05,0.0,0 STARLINK-3638,1 51786U 22017U   23315.72397514 -.00001091  00000-0 -50461-4 0  9994,2 51786  53.2154 200.2762 0001324  81.3822 278.7320 15.08833310 95805,6917.901,95.438,540.682,538.85,0.0
51786.0,STARLINK-3638,PAYLOAD,2023-11-11 22:08:40,15.08839531,0.0001583,53.2174,199.3873,98.9004,261.2167,-6.1758e-05,-1.271e-05,0.0,0 STARLINK-3638,1 51786U 22017U   23315.92269383 -.00001271  00000-0 -61758-4 0  9999,2 51786  53.2174 199.3873 0001583  98.9004 261.2167 15.08839531 94144,6917.882,95.438,540.842,538.652,0.0
51786.0,STARLINK-3638,PAYLOAD,2023-11-12 01:19:27,15.08839364,0.0001501,53.2161,198.79,84.1338,275.9825,5.9639e-05,6.61e-06,0.0,0 STARLINK-3638,1 51786U 22017U   23316.05517380  .00000661  00000-0  59639-4 0  9992,2 51786  53.2161 198.7900 0001501  84.1338 275.9825 15.08839364 94160,6917.882,95.438,540.786,538.709,0.0
51786.0,STARLINK-3638,PAYLOAD,2023-11-12 21:59:27,15.08845678,0.0001555,53.2165,194.9243,85.9809,274.1361,9.2852e-05,1.19e-05,0.0,0 STARLINK-3638,1 51786U 22017U   23316.91629188  .00001190  00000-0  92852-4 0  9999,2 51786  53.2165 194.9243 0001555  85.9809 274.1361 15.08845678 94298,6917.863,95.437,540.804,538.652,0.0
51786.0,STARLINK-3638,PAYLOAD,2023-11-13 01:10:13,15.08851617,0.0001548,53.2165,194.3287,83.5913,276.5255,0.00017875,2.559e-05,0.0,0 STARLINK-3638,1 51786U 22017U   23317.04876895  .00002559  00000-0  17875-3 0  9994,2 51786  53.2165 194.3287 0001548  83.5913 276.5255 15.08851617 96001,6917.845,95.437,540.781,538.639,0.0
51786.0,STARLINK-3638,PAYLOAD,2023-11-13 21:50:14,15.08841142,0.0001593,53.2169,190.4612,80.04,280.0772,0.00016451,2.331e-05,0.0,0 STARLINK-3638,1 51786U 22017U   23317.90989413  .00002331  00000-0  16451-3 0  9997,2 51786  53.2169 190.4612 0001593  80.0400 280.0772 15.08841142 94449,6917.877,95.437,540.844,538.64,0.0
51786.0,STARLINK-3638,PAYLOAD,2023-11-13 23:25:37,15.0884019,0.0001586,53.2164,190.1634,87.3773,272.74,9.4839e-05,1.222e-05,0.0,0 STARLINK-3638,1 51786U 22017U   23317.97613391  .00001222  00000-0  94839-4 0  9998,2 51786  53.2164 190.1634 0001586  87.3773 272.7400 15.08840190 96147,6917.88,95.438,540.842,538.648,0.0
51786.0,STARLINK-3638,PAYLOAD,2023-11-14 08:57:56,15.08843862,0.0001597,53.2161,188.3838,77.1569,282.9601,0.00010428,1.372e-05,0.0,0 STARLINK-3638,1 51786U 22017U   23318.37357287  .00001372  00000-0  10428-3 0  9999,2 51786  53.2161 188.3838 0001597  77.1569 282.9601 15.08843862 94515,6917.869,95.437,540.838,538.629,0.0
51786.0,STARLINK-3638,PAYLOAD,2023-11-14 21:41:01,15.0884426,0.0001552,53.2163,186.0042,86.3743,273.7426,3.2565e-05,2.3e-06,0.0,0 STARLINK-3638,1 51786U 22017U   23318.90349208  .00000230  00000-0  32565-4 0  9991,2 51786  53.2163 186.0042 0001552  86.3743 273.7426 15.08844260 94590,6917.867,95.437,540.806,538.659,0.0
51786.0,STARLINK-3638,PAYLOAD,2023-11-15 00:51:47,15.08844897,0.0001569,53.2162,185.4092,83.7939,276.3232,3.916e-05,3.35e-06,0.0,0 STARLINK-3638,1 51786U 22017U   23319.03597170  .00000335  00000-0  39160-4 0  9993,2 51786  53.2162 185.4092 0001569  83.7939 276.3232 15.08844897 96304,6917.865,95.437,540.816,538.645,0.0
51786.0,STARLINK-3638,PAYLOAD,2023-11-15 21:31:49,15.0883869,0.0001613,53.2161,181.543,85.6432,274.4745,7.1309e-05,8.47e-06,0.0,0 STARLINK-3638,1 51786U 22017U   23319.89709574  .00000847  00000-0  71309-4 0  9999,2 51786  53.2161 181.5430 0001613  85.6432 274.4745 15.08838690 94743,6917.884,95.438,540.865,538.634,0.0
51786.0,STARLINK-3638,PAYLOAD,2023-11-16 00:42:35,15.08840554,0.0001609,53.2164,180.9481,86.3133,273.8043,7.5323e-05,9.11e-06,0.0,0 STARLINK-3638,1 51786U 22017U   23320.02957478  .00000911  00000-0  75323-4 0  9996,2 51786  53.2164 180.9481 0001609  86.3133 273.8043 15.08840554 96452,6917.879,95.438,540.857,538.631,0.0
51786.0,STARLINK-3638,PAYLOAD,2023-11-16 21:22:35,15.08843633,0.0001595,53.2141,177.0813,90.9507,269.1668,9.3908e-05,1.207e-05,0.0,0 STARLINK-3638,1 51786U 22017U   23320.89069095  .00001207  00000-0  93908-4 0  9998,2 51786  53.2141 177.0813 0001595  90.9507 269.1668 15.08843633 94891,6917.869,95.437,540.838,538.631,0.0
51786.0,STARLINK-3638,PAYLOAD,2023-11-17 00:33:22,15.08841729,0.000169,53.2163,176.4871,91.3932,268.7254,0.00010751,1.423e-05,0.0,0 STARLINK-3638,1 51786U 22017U   23321.02317190  .00001423  00000-0  10751-3 0  9990,2 51786  53.2163 176.4871 0001690  91.3932 268.7254 15.08841729 94918,6917.875,95.437,540.909,538.571,0.0
51786.0,STARLINK-3638,PAYLOAD,2023-11-18 14:42:37,15.08839563,0.0001626,53.2167,169.35,87.8521,272.2657,9.8006e-06,-1.32e-06,0.0,0 STARLINK-3638,1 51786U 22017U   23322.61293439 -.00000132  00000-0  98006-5 0  9993,2 51786  53.2167 169.3500 0001626  87.8521 272.2657 15.08839563 95152,6917.882,95.438,540.872,538.622,0.0
51786.0,STARLINK-3638,PAYLOAD,2023-11-18 21:04:10,15.08831522,0.000131,53.2159,168.1593,84.8095,275.3047,-5.4992e-05,-1.163e-05,0.0,0 STARLINK-3638,1 51786U 22017U   23322.87790319 -.00001163  00000-0 -54992-4 0  9991,2 51786  53.2159 168.1593 0001310  84.8095 275.3047 15.08831522 95193,6917.906,95.438,540.678,538.865,0.0
51786.0,STARLINK-3638,PAYLOAD,2023-11-19 06:36:29,15.0883387,0.0001428,53.2161,166.3761,87.4426,272.6729,-8.2954e-05,-1.608e-05,0.0,0 STARLINK-3638,1 51786U 22017U   23323.27534316 -.00001608  00000-0 -82954-4 0  9992,2 51786  53.2161 166.3761 0001428  87.4426 272.6729 15.08833870 95252,6917.899,95.438,540.752,538.776,0.0
